start=new Date('2023-05-19T00:00:00.000Z').valueOf();
sats=[{"PERIAPSIS":"546.268","DECAY_DATE":null,"CENTER_NAME":"EARTH","BSTAR":"0.00008959300000","REF_FRAME":"TEME","CLASSIFICATION_TYPE":"U","MEAN_MOTION_DDOT":"0.0000000000000","NORAD_CAT_ID":"47842","EPOCH":"2023-05-18T12:54:50.932800","FILE":"3911221","MEAN_MOTION":"15.06399178","COUNTRY_CODE":"US","ECCENTRICITY":"0.00013690","APOAPSIS":"548.164","ARG_OF_PERICENTER":"66.6799","LAUNCH_DATE":"2021-03-11","MEAN_ELEMENT_THEORY":"SGP4","GP_ID":"232084235","TLE_LINE1":"1 47842U 21018BH  23138.53808950  .00001053  00000-0  89593-4 0  9999","TLE_LINE2":"2 47842  53.0521 188.1888 0001369  66.6799 293.4334 15.06399178121840","SITE":"AFETR","EPHEMERIS_TYPE":"0","PERIOD":"95.592","RA_OF_ASC_NODE":"188.1888","OBJECT_NAME":"STARLINK-2434","OBJECT_TYPE":"PAYLOAD","SEMIMAJOR_AXIS":"6925.351","RCS_SIZE":"LARGE","TIME_SYSTEM":"UTC","ELEMENT_SET_NO":"999","INCLINATION":"53.0521","REV_AT_EPOCH":"12184","MEAN_ANOMALY":"293.4334","OBJECT_ID":"2021-018BH","MEAN_MOTION_DOT":"0.00001053"},{"REV_AT_EPOCH":"12192","MEAN_MOTION_DOT":"0.00008703","OBJECT_ID":"2021-018BJ","MEAN_ANOMALY":"269.5596","OBJECT_TYPE":"PAYLOAD","SEMIMAJOR_AXIS":"6925.309","OBJECT_NAME":"STARLINK-2435","RCS_SIZE":"LARGE","ELEMENT_SET_NO":"999","INCLINATION":"53.0518","TIME_SYSTEM":"UTC","APOAPSIS":"547.963","ARG_OF_PERICENTER":"90.5523","LAUNCH_DATE":"2021-03-11","TLE_LINE1":"1 47843U 21018BJ  23138.84264102  .00008703  00000-0  60225-3 0  9998","TLE_LINE2":"2 47843  53.0518 181.8210 0001139  90.5523 269.5596 15.06412932121929","MEAN_ELEMENT_THEORY":"SGP4","GP_ID":"232113712","PERIOD":"95.591","RA_OF_ASC_NODE":"181.8210","SITE":"AFETR","EPHEMERIS_TYPE":"0","PERIAPSIS":"546.385","DECAY_DATE":null,"MEAN_MOTION_DDOT":"0.0000000000000","CLASSIFICATION_TYPE":"U","CENTER_NAME":"EARTH","REF_FRAME":"TEME","BSTAR":"0.00060225000000","FILE":"3911388","MEAN_MOTION":"15.06412932","NORAD_CAT_ID":"47843","EPOCH":"2023-05-18T20:13:24.184128","COUNTRY_CODE":"US","ECCENTRICITY":"0.00011390"},{"GP_ID":"232114463","MEAN_ELEMENT_THEORY":"SGP4","TLE_LINE1":"1 47844U 21018BK  23138.84124723 -.00000252  00000-0  19571-5 0  9995","TLE_LINE2":"2 47844  53.0539 176.8294 0000960  94.8223 265.2876 15.06399805121976","EPHEMERIS_TYPE":"0","SITE":"AFETR","RA_OF_ASC_NODE":"176.8294","PERIOD":"95.592","ARG_OF_PERICENTER":"94.8223","APOAPSIS":"547.879","LAUNCH_DATE":"2021-03-11","EPOCH":"2023-05-18T20:11:23.760672","NORAD_CAT_ID":"47844","MEAN_MOTION":"15.06399805","FILE":"3911388","ECCENTRICITY":"0.00009600","COUNTRY_CODE":"US","DECAY_DATE":null,"PERIAPSIS":"546.549","REF_FRAME":"TEME","BSTAR":"0.00000195710000","CENTER_NAME":"EARTH","CLASSIFICATION_TYPE":"U","MEAN_MOTION_DDOT":"0.0000000000000","OBJECT_ID":"2021-018BK","MEAN_ANOMALY":"265.2876","MEAN_MOTION_DOT":"-0.00000252","REV_AT_EPOCH":"12197","TIME_SYSTEM":"UTC","INCLINATION":"53.0539","ELEMENT_SET_NO":"999","OBJECT_NAME":"STARLINK-2446","SEMIMAJOR_AXIS":"6925.349","OBJECT_TYPE":"PAYLOAD","RCS_SIZE":"LARGE"},{"RCS_SIZE":"LARGE","OBJECT_TYPE":"PAYLOAD","SEMIMAJOR_AXIS":"6925.351","OBJECT_NAME":"STARLINK-2453","ELEMENT_SET_NO":"999","INCLINATION":"53.0525","TIME_SYSTEM":"UTC","REV_AT_EPOCH":"12190","MEAN_MOTION_DOT":"0.00001760","OBJECT_ID":"2021-018BL","MEAN_ANOMALY":"280.5034","MEAN_MOTION_DDOT":"0.0000000000000","CLASSIFICATION_TYPE":"U","CENTER_NAME":"EARTH","BSTAR":"0.00013700000000","REF_FRAME":"TEME","PERIAPSIS":"546.373","DECAY_DATE":null,"COUNTRY_CODE":"US","ECCENTRICITY":"0.00012170","FILE":"3911221","MEAN_MOTION":"15.06399327","NORAD_CAT_ID":"47845","EPOCH":"2023-05-18T07:53:37.900032","LAUNCH_DATE":"2021-03-11","APOAPSIS":"548.058","ARG_OF_PERICENTER":"79.6092","PERIOD":"95.592","RA_OF_ASC_NODE":"179.1303","SITE":"AFETR","EPHEMERIS_TYPE":"0","TLE_LINE1":"1 47845U 21018BL  23138.32891088  .00001760  00000-0  13700-3 0  9994","TLE_LINE2":"2 47845  53.0525 179.1303 0001217  79.6092 280.5034 15.06399327121908","MEAN_ELEMENT_THEORY":"SGP4","GP_ID":"232083985"},{"MEAN_MOTION_DOT":"0.00002113","OBJECT_ID":"2021-018BM","MEAN_ANOMALY":"290.3306","REV_AT_EPOCH":"12198","ELEMENT_SET_NO":"999","INCLINATION":"53.0532","TIME_SYSTEM":"UTC","OBJECT_TYPE":"PAYLOAD","SEMIMAJOR_AXIS":"6925.343","OBJECT_NAME":"STARLINK-2456","RCS_SIZE":"LARGE","TLE_LINE2":"2 47846  53.0532 178.2498 0001297  69.7822 290.3306 15.06401731121983","TLE_LINE1":"1 47846U 21018BM  23138.52332040  .00002113  00000-0  16067-3 0  9997","MEAN_ELEMENT_THEORY":"SGP4","GP_ID":"232083735","PERIOD":"95.592","RA_OF_ASC_NODE":"178.2498","SITE":"AFETR","EPHEMERIS_TYPE":"0","APOAPSIS":"548.106","ARG_OF_PERICENTER":"69.7822","LAUNCH_DATE":"2021-03-11","FILE":"3911221","MEAN_MOTION":"15.06401731","NORAD_CAT_ID":"47846","EPOCH":"2023-05-18T12:33:34.882560","COUNTRY_CODE":"US","ECCENTRICITY":"0.00012970","PERIAPSIS":"546.310","DECAY_DATE":null,"CLASSIFICATION_TYPE":"U","MEAN_MOTION_DDOT":"0.0000000000000","CENTER_NAME":"EARTH","REF_FRAME":"TEME","BSTAR":"0.00016067000000"},{"MEAN_ELEMENT_THEORY":"SGP4","GP_ID":"232114214","TLE_LINE2":"2 47860  53.0536 206.4460 0000967 119.8492 240.2593 15.06388270121343","TLE_LINE1":"1 47860U 21021A   23138.92696495  .00000293  00000-0  38571-4 0  9990","SITE":"AFETR","EPHEMERIS_TYPE":"0","PERIOD":"95.593","RA_OF_ASC_NODE":"206.4460","APOAPSIS":"547.919","ARG_OF_PERICENTER":"119.8492","LAUNCH_DATE":"2021-03-14","NORAD_CAT_ID":"47860","EPOCH":"2023-05-18T22:14:49.771680","FILE":"3911388","MEAN_MOTION":"15.06388270","ECCENTRICITY":"0.00009670","COUNTRY_CODE":"US","PERIAPSIS":"546.580","DECAY_DATE":null,"CENTER_NAME":"EARTH","REF_FRAME":"TEME","BSTAR":"0.00003857100000","MEAN_MOTION_DDOT":"0.0000000000000","CLASSIFICATION_TYPE":"U","MEAN_ANOMALY":"240.2593","OBJECT_ID":"2021-021A","MEAN_MOTION_DOT":"0.00000293","REV_AT_EPOCH":"12134","TIME_SYSTEM":"UTC","ELEMENT_SET_NO":"999","INCLINATION":"53.0536","OBJECT_NAME":"STARLINK-2258","OBJECT_TYPE":"PAYLOAD","SEMIMAJOR_AXIS":"6925.385","RCS_SIZE":"LARGE"},{"OBJECT_ID":"2021-021B","MEAN_ANOMALY":"273.8514","MEAN_MOTION_DOT":"0.00002451","REV_AT_EPOCH":"12160","TIME_SYSTEM":"UTC","ELEMENT_SET_NO":"999","INCLINATION":"53.0533","RCS_SIZE":"LARGE","OBJECT_NAME":"STARLINK-2280","OBJECT_TYPE":"PAYLOAD","SEMIMAJOR_AXIS":"6925.359","SITE":"AFETR","EPHEMERIS_TYPE":"0","PERIOD":"95.592","RA_OF_ASC_NODE":"193.1554","MEAN_ELEMENT_THEORY":"SGP4","GP_ID":"232082734","TLE_LINE2":"2 47861  53.0533 193.1554 0001037  86.2594 273.8514 15.06396557121607","TLE_LINE1":"1 47861U 21021B   23138.54684077  .00002451  00000-0  18340-3 0  9991","LAUNCH_DATE":"2021-03-14","APOAPSIS":"547.942","ARG_OF_PERICENTER":"86.2594","ECCENTRICITY":"0.00010370","COUNTRY_CODE":"US","NORAD_CAT_ID":"47861","EPOCH":"2023-05-18T13:07:27.042528","FILE":"3911221","MEAN_MOTION":"15.06396557","CENTER_NAME":"EARTH","REF_FRAME":"TEME","BSTAR":"0.00018340000000","MEAN_MOTION_DDOT":"0.0000000000000","CLASSIFICATION_TYPE":"U","PERIAPSIS":"546.506","DECAY_DATE":null},{"MEAN_ANOMALY":"274.0131","OBJECT_ID":"2021-021C","MEAN_MOTION_DOT":"0.00001730","REV_AT_EPOCH":"12165","TIME_SYSTEM":"UTC","INCLINATION":"53.0523","ELEMENT_SET_NO":"999","OBJECT_NAME":"STARLINK-2291","SEMIMAJOR_AXIS":"6925.358","OBJECT_TYPE":"PAYLOAD","RCS_SIZE":"LARGE","GP_ID":"232083486","MEAN_ELEMENT_THEORY":"SGP4","TLE_LINE1":"1 47862U 21021C   23138.46068106  .00001730  00000-0  13499-3 0  9991","TLE_LINE2":"2 47862  53.0523 188.5349 0001055  86.0978 274.0131 15.06396806121651","EPHEMERIS_TYPE":"0","SITE":"AFETR","RA_OF_ASC_NODE":"188.5349","PERIOD":"95.592","ARG_OF_PERICENTER":"86.0978","APOAPSIS":"547.954","LAUNCH_DATE":"2021-03-14","EPOCH":"2023-05-18T11:03:22.843584","NORAD_CAT_ID":"47862","MEAN_MOTION":"15.06396806","FILE":"3911221","COUNTRY_CODE":"US","ECCENTRICITY":"0.00010550","DECAY_DATE":null,"PERIAPSIS":"546.493","REF_FRAME":"TEME","BSTAR":"0.00013499000000","CENTER_NAME":"EARTH","MEAN_MOTION_DDOT":"0.0000000000000","CLASSIFICATION_TYPE":"U"},{"TIME_SYSTEM":"UTC","ELEMENT_SET_NO":"999","INCLINATION":"53.0538","OBJECT_NAME":"STARLINK-2293","OBJECT_TYPE":"PAYLOAD","SEMIMAJOR_AXIS":"6925.360","RCS_SIZE":"LARGE","MEAN_ANOMALY":"270.0744","OBJECT_ID":"2021-021D","MEAN_MOTION_DOT":"0.00001867","REV_AT_EPOCH":"12153","NORAD_CAT_ID":"47863","EPOCH":"2023-05-18T13:14:45.000672","FILE":"3911221","MEAN_MOTION":"15.06396137","COUNTRY_CODE":"US","ECCENTRICITY":"0.00011580","PERIAPSIS":"546.423","DECAY_DATE":null,"CENTER_NAME":"EARTH","BSTAR":"0.00014420000000","REF_FRAME":"TEME","MEAN_MOTION_DDOT":"0.0000000000000","CLASSIFICATION_TYPE":"U","MEAN_ELEMENT_THEORY":"SGP4","GP_ID":"232084237","TLE_LINE2":"2 47863  53.0538 198.1322 0001158  90.0378 270.0744 15.06396137121539","TLE_LINE1":"1 47863U 21021D   23138.55190973  .00001867  00000-0  14420-3 0  9996","SITE":"AFETR","EPHEMERIS_TYPE":"0","PERIOD":"95.592","RA_OF_ASC_NODE":"198.1322","APOAPSIS":"548.027","ARG_OF_PERICENTER":"90.0378","LAUNCH_DATE":"2021-03-14"},{"DECAY_DATE":null,"PERIAPSIS":"546.294","MEAN_MOTION_DDOT":"0.0000000000000","CLASSIFICATION_TYPE":"U","BSTAR":"0.00006285600000","REF_FRAME":"TEME","CENTER_NAME":"EARTH","MEAN_MOTION":"15.06394201","FILE":"3911315","EPOCH":"2023-05-18T11:08:42.092448","NORAD_CAT_ID":"47864","ECCENTRICITY":"0.00013530","COUNTRY_CODE":"US","ARG_OF_PERICENTER":"79.4519","APOAPSIS":"548.168","LAUNCH_DATE":"2021-03-14","TLE_LINE1":"1 47864U 21021E   23138.46437607  .00000655  00000-0  62856-4 0  9996","TLE_LINE2":"2 47864  53.0519 188.5671 0001353  79.4519 280.6623 15.06394201121166","GP_ID":"232090736","MEAN_ELEMENT_THEORY":"SGP4","RA_OF_ASC_NODE":"188.5671","PERIOD":"95.593","EPHEMERIS_TYPE":"0","SITE":"AFETR","SEMIMAJOR_AXIS":"6925.366","OBJECT_TYPE":"PAYLOAD","OBJECT_NAME":"STARLINK-2304","RCS_SIZE":"LARGE","INCLINATION":"53.0519","ELEMENT_SET_NO":"999","TIME_SYSTEM":"UTC","REV_AT_EPOCH":"12116","MEAN_MOTION_DOT":"0.00000655","MEAN_ANOMALY":"280.6623","OBJECT_ID":"2021-021E"}];
